OBJECT_NAME,OBJECT_ID,EPOCH,MEAN_MOTION,ECCENTRICITY,INCLINATION,RA_OF_ASC_NODE,ARG_OF_PERICENTER,MEAN_ANOMALY,EPHEMERIS_TYPE,CLASSIFICATION_TYPE,NORAD_CAT_ID,ELEMENT_SET_NO,REV_AT_EPOCH,BSTAR,MEAN_MOTION_DOT,MEAN_MOTION_DDOT
FENGYUN 3D,2017-072A,2026-06-05T17:31:49.600416,14.19736253,.0002673,99.0127,130.9464,80.4588,279.6890,0,U,43010,999,44336,-.36974E-4,-.124E-5,0
NOAA 20 (JPSS-1),2017-073A,2026-06-05T15:40:20.892576,14.19509538,.0000583,98.7769,96.2184,37.7542,322.3675,0,U,43013,999,44283,.57712E-4,.77E-6,0
GOES 17,2018-022A,2026-06-05T14:48:10.006272,1.00271340,.0000728,0.9078,85.9257,9.2393,291.4339,0,U,43226,999,3030,0,-.17E-5,0
SENTINEL-3B,2018-039A,2026-06-05T11:28:20.737056,14.26738325,.0000937,98.6250,224.1778,75.1452,284.9833,0,U,43437,999,42245,.68428E-4,.122E-5,0
FENGYUN 2H,2018-050A,2026-06-05T17:14:47.444352,1.00271829,.000144,3.0016,79.2061,126.7370,26.3583,0,U,43491,999,2932,0,-.118E-5,0
METOP-C,2018-087A,2026-06-05T15:57:59.849856,14.21509022,.000132,98.6648,216.4790,142.1563,217.9707,0,U,43689,999,39319,.73988E-4,.119E-5,0
GEO-KOMPSAT-2A,2018-100A,2026-06-05T14:07:36.106176,1.00272670,.0002455,0.0499,137.6750,304.2809,152.2285,0,U,43823,999,2751,0,-.331E-5,0
METEOR-M2 2,2019-038A,2026-06-05T17:22:58.732896,14.24363162,.0002359,98.9144,143.8412,64.7114,295.4309,0,U,44387,999,35966,.12132E-3,.235E-5,0
ARKTIKA-M 1,2021-016A,2026-06-02T00:56:25.095840,2.00628509,.72832396,63.2379,59.8266,269.8643,14.6915,0,U,47719,999,3848,0,-.2E-5,0
FENGYUN 3E,2021-062A,2026-06-05T17:10:26.339232,14.19902648,.0002673,98.7491,160.2518,103.5526,256.5948,0,U,49008,999,25495,.91924E-5,-.24E-6,0
GOES 18,2022-021A,2026-06-05T16:17:16.927296,1.00272053,.0000607,0.0408,133.9056,350.7964,236.7262,0,U,51850,999,647,0,.109E-5,0
NOAA 21 (JPSS-2),2022-150A,2026-06-05T16:28:19.945344,14.19563372,.0001012,98.7057,95.6688,183.3666,176.7504,0,U,54234,999,18491,.52372E-4,.67E-6,0
METEOSAT-12 (MTG-I1),2022-170C,2026-06-05T16:56:11.209056,1.00271515,.0003531,0.7253,20.9942,69.9201,56.8430,0,U,54743,999,1286,0,.4E-7,0
TIANMU-1 03,2023-039A,2026-06-05T17:33:18.919008,15.46945861,.0004041,97.5235,330.2552,127.1822,232.9797,0,U,55973,999,17906,.32654E-3,.16377E-3,0
TIANMU-1 04,2023-039B,2026-06-05T17:24:28.262304,15.47531431,.0004732,97.5172,329.4020,124.9439,235.2256,0,U,55974,999,17907,.33529E-3,.17166E-3,0
TIANMU-1 05,2023-039C,2026-06-05T17:04:49.703232,15.46873933,.0003661,97.5218,329.8539,142.7927,217.3577,0,U,55975,999,17904,.33125E-3,.16573E-3,0
TIANMU-1 06,2023-039D,2026-06-05T17:28:20.121888,15.47439971,.000395,97.5224,330.4952,138.7474,221.4075,0,U,55976,999,17907,.33227E-3,.16954E-3,0
FENGYUN 3G,2023-055A,2026-06-05T17:14:02.302944,15.54273933,.0005571,49.9932,45.1527,150.8993,209.2286,0,U,56232,999,17822,.4252E-3,.27976E-3,0
METEOR-M2 3,2023-091A,2026-06-05T17:11:00.260736,14.24045853,.0003687,98.6086,211.9285,186.6176,173.4955,0,U,57166,999,15288,.22268E-4,.8E-7,0
TIANMU-1 07,2023-101A,2026-06-05T17:14:21.158880,15.29669998,.0003362,97.2594,207.6508,145.9428,214.2029,0,U,57399,999,15989,.2405E-3,.6841E-4,0
TIANMU-1 08,2023-101B,2026-06-05T16:26:21.812352,15.29675190,.0004966,97.2581,207.3907,143.5266,216.6314,0,U,57400,999,15988,.26238E-3,.7473E-4,0
TIANMU-1 09,2023-101C,2026-06-05T17:36:59.404032,15.29702764,.0003749,97.2539,206.8602,154.0048,206.1382,0,U,57401,999,15989,.25598E-3,.7294E-4,0
TIANMU-1 10,2023-101D,2026-06-05T16:50:04.656192,15.29672926,.0005309,97.2620,207.8672,157.2062,202.9415,0,U,57402,999,15988,.25698E-3,.7317E-4,0
FENGYUN 3F,2023-111A,2026-06-05T16:47:39.674400,14.19937158,.0001564,98.6837,226.9222,101.5128,258.6224,0,U,57490,999,14723,.48558E-4,.6E-6,0
ARKTIKA-M 2,2023-198A,2026-06-03T07:17:21.587712,2.00591941,.68985494,63.2209,155.9142,267.4684,18.7857,0,U,58584,999,1804,0,.15E-5,0
TIANMU-1 11,2023-205A,2026-06-05T17:11:31.827840,15.26872109,.0010193,97.3449,178.4542,53.5492,306.6685,0,U,58645,999,13577,.23641E-3,.6176E-4,0
TIANMU-1 12,2023-205B,2026-06-05T16:28:26.961888,15.26832585,.0008117,97.3439,178.1829,41.4710,318.7144,0,U,58646,999,13575,.24608E-3,.6421E-4,0
TIANMU-1 13,2023-205C,2026-06-05T17:13:12.767232,15.26687995,.0007313,97.3465,178.4843,22.8578,337.2985,0,U,58647,999,13575,.2447E-3,.6355E-4,0
TIANMU-1 14,2023-205D,2026-06-05T16:52:23.536416,15.26732470,.0008286,97.3403,177.6609,26.2788,333.8870,0,U,58648,999,13575,.23566E-3,.6128E-4,0
TIANMU-1 19,2023-208A,2026-06-05T17:19:53.128416,15.31394116,.0004818,97.4494,272.9659,14.1006,346.0369,0,U,58660,999,13557,.29495E-3,.8868E-4,0
TIANMU-1 20,2023-208B,2026-06-05T16:53:07.291968,15.32585855,.0007063,97.4438,273.5706,17.0635,343.0843,0,U,58661,999,13566,.28262E-3,.8821E-4,0
