FENGYUN 3D              
1 43010U 17072A   26156.73043519 -.00000124  00000+0 -36974-4 0  9998
2 43010  99.0127 130.9464 0002673  80.4588 279.6890 14.19736253443368
NOAA 20 (JPSS-1)        
1 43013U 17073A   26156.65301959  .00000077  00000+0  57712-4 0  9996
2 43013  98.7769  96.2184 0000583  37.7542 322.3675 14.19509538442837
GOES 17                 
1 43226U 18022A   26156.61678248 -.00000170  00000+0  00000+0 0  9999
2 43226   0.9078  85.9257 0000728   9.2393 291.4339  1.00271340 30307
SENTINEL-3B             
1 43437U 18039A   26156.47801779  .00000122  00000+0  68428-4 0  9991
2 43437  98.6250 224.1778 0000937  75.1452 284.9833 14.26738325422452
FENGYUN 2H              
1 43491U 18050A   26156.71860468 -.00000118  00000+0  00000+0 0  9994
2 43491   3.0016  79.2061 0001440 126.7370  26.3583  1.00271829 29326
METOP-C                 
1 43689U 18087A   26156.66527604  .00000119  00000+0  73988-4 0  9999
2 43689  98.6648 216.4790 0001320 142.1563 217.9707 14.21509022393194
GEO-KOMPSAT-2A          
1 43823U 18100A   26156.58861234 -.00000331  00000+0  00000+0 0  9993
2 43823   0.0499 137.6750 0002455 304.2809 152.2285  1.00272670 27510
METEOR-M2 2             
1 44387U 19038A   26156.72429089  .00000235  00000+0  12132-3 0  9999
2 44387  98.9144 143.8412 0002359  64.7114 295.4309 14.24363162359661
ARKTIKA-M 1             
1 47719U 21016A   26153.03917935 -.00000200  00000+0  00000+0 0  9993
2 47719  63.2379  59.8266 7283239 269.8643  14.6915  2.00628509 38489
FENGYUN 3E              
1 49008U 21062A   26156.71558263 -.00000024  00000+0  91924-5 0  9995
2 49008  98.7491 160.2518 0002673 103.5526 256.5948 14.19902648254952
GOES 18                 
1 51850U 22021A   26156.67866814  .00000109  00000+0  00000+0 0  9990
2 51850   0.0408 133.9056 0000607 350.7964 236.7262  1.00272053  6472
NOAA 21 (JPSS-2)        
1 54234U 22150A   26156.68634196  .00000067  00000+0  52372-4 0  9996
2 54234  98.7057  95.6688 0001012 183.3666 176.7504 14.19563372184919
METEOSAT-12 (MTG-I1)    
1 54743U 22170C   26156.70568529  .00000004  00000+0  00000+0 0  9999
2 54743   0.7253  20.9942 0003531  69.9201  56.8430  1.00271515 12862
TIANMU-1 03             
1 55973U 23039A   26156.73146897  .00016377  00000+0  32654-3 0  9997
2 55973  97.5235 330.2552 0004041 127.1822 232.9797 15.46945861179065
TIANMU-1 04             
1 55974U 23039B   26156.72532711  .00017166  00000+0  33529-3 0  9990
2 55974  97.5172 329.4020 0004732 124.9439 235.2256 15.47531431179074
TIANMU-1 05             
1 55975U 23039C   26156.71168638  .00016573  00000+0  33125-3 0  9996
2 55975  97.5218 329.8539 0003661 142.7927 217.3577 15.46873933179044
TIANMU-1 06             
1 55976U 23039D   26156.72801067  .00016954  00000+0  33227-3 0  9994
2 55976  97.5224 330.4952 0003950 138.7474 221.4075 15.47439971179075
FENGYUN 3G              
1 56232U 23055A   26156.71808221  .00027976  00000+0  42520-3 0  9998
2 56232  49.9932  45.1527 0005571 150.8993 209.2286 15.54273933178224
METEOR-M2 3             
1 57166U 23091A   26156.71597524  .00000008  00000+0  22268-4 0  9991
2 57166  98.6086 211.9285 0003687 186.6176 173.4955 14.24045853152885
TIANMU-1 07             
1 57399U 23101A   26156.71830045  .00006841  00000+0  24050-3 0  9990
2 57399  97.2594 207.6508 0003362 145.9428 214.2029 15.29669998159892
TIANMU-1 08             
1 57400U 23101B   26156.68497468  .00007473  00000+0  26238-3 0  9999
2 57400  97.2581 207.3907 0004966 143.5266 216.6314 15.29675190159889
TIANMU-1 09             
1 57401U 23101C   26156.73402088  .00007294  00000+0  25598-3 0  9999
2 57401  97.2539 206.8602 0003749 154.0048 206.1382 15.29702764159890
TIANMU-1 10             
1 57402U 23101D   26156.70144278  .00007317  00000+0  25698-3 0  9998
2 57402  97.2620 207.8672 0005309 157.2062 202.9415 15.29672926159881
FENGYUN 3F              
1 57490U 23111A   26156.69976475  .00000060  00000+0  48558-4 0  9995
2 57490  98.6837 226.9222 0001564 101.5128 258.6224 14.19937158147231
ARKTIKA-M 2             
1 58584U 23198A   26154.30372208  .00000150  00000+0  00000+0 0  9990
2 58584  63.2209 155.9142 6898549 267.4684  18.7857  2.00591941 18047
TIANMU-1 11             
1 58645U 23205A   26156.71634060  .00006176  00000+0  23641-3 0  9995
2 58645  97.3449 178.4542 0010193  53.5492 306.6685 15.26872109135777
TIANMU-1 12             
1 58646U 23205B   26156.68642317  .00006421  00000+0  24608-3 0  9993
2 58646  97.3439 178.1829 0008117  41.4710 318.7144 15.26832585135750
TIANMU-1 13             
1 58647U 23205C   26156.71750888  .00006355  00000+0  24470-3 0  9994
2 58647  97.3465 178.4843 0007313  22.8578 337.2985 15.26687995135753
TIANMU-1 14             
1 58648U 23205D   26156.70305019  .00006128  00000+0  23566-3 0  9999
2 58648  97.3403 177.6609 0008286  26.2788 333.8870 15.26732470135752
TIANMU-1 19             
1 58660U 23208A   26156.72214269  .00008868  00000+0  29495-3 0  9994
2 58660  97.4494 272.9659 0004818  14.1006 346.0369 15.31394116135573
TIANMU-1 20             
1 58661U 23208B   26156.70355662  .00008821  00000+0  28262-3 0  9996
2 58661  97.4438 273.5706 0007063  17.0635 343.0843 15.32585855135664
